IRIDIUM 119             
1 42959U 17061E   23304.87933623  .00000420  00000+0  14287-3 0  9997
2 42959  86.3968  66.1431 0001661  94.6804 265.4582 14.34219924317313
IRIDIUM 107             
1 42960U 17061F   23304.89835661  .00000530  00000+0  18214-3 0  9990
2 42960  86.3970  66.1507 0001884  99.8207 260.3201 14.34221938317324
IRIDIUM 132             
1 42961U 17061G   23305.39308455  .00000522  00000+0  17922-3 0  9999
2 42961  86.3970  65.9298 0001762  97.5146 262.6250 14.34214714317391
IRIDIUM 136             
1 42962U 17061H   23304.86664650  .00000536  00000+0  18438-3 0  9991
2 42962  86.3969  66.1522 0001871  88.3365 271.8045 14.34221388317338
IRIDIUM 139             
1 42963U 17061J   23304.73345718  .00000503  00000+0  17256-3 0  9990
2 42963  86.3971  66.2546 0001912  98.6632 261.4781 14.34220178317323
IRIDIUM 125             
1 42964U 17061K   23305.06961246  .00000526  00000+0  18081-3 0  9990
2 42964  86.3972  66.1576 0001783  97.0570 263.0829 14.34221290317380
IRIDIUM 135             
1 43070U 17083A   23304.90420336  .00000459  00000+0  15697-3 0  9990
2 43070  86.4009   2.9399 0002472  97.7733 262.3744 14.34218203306652
IRIDIUM 138             
1 43071U 17083B   23305.20864778  .00000340  00000+0  11435-3 0  9992
2 43071  86.3997   2.5588 0001910  93.7577 266.3837 14.34215840306686
